NORAD_CAT_ID,OBJECT_NAME,OBJECT_TYPE,EPOCH,MEAN_MOTION,ECCENTRICITY,INCLINATION,RA_OF_ASC_NODE,ARG_OF_PERICENTER,MEAN_ANOMALY,BSTAR,MEAN_MOTION_DOT,MEAN_MOTION_DDOT,TLE_LINE0,TLE_LINE1,TLE_LINE2,SEMIMAJOR_AXIS,PERIOD,APOGEE,PERIGEE,DECAYED
56476.0,STARLINK-5545,PAYLOAD,2023-12-28 08:13:28,14.98326144,0.0002706,70.0006,347.5302,267.5677,92.5172,2.2632e-05,1.77e-06,0.0,0 STARLINK-5545,1 56476U 23064AE  23362.34269154  .00000177  00000-0  22632-4 0  9997,2 56476  70.0006 347.5302 0002706 267.5677  92.5172 14.98326144 35918,6950.205,96.107,573.951,570.189,0.0
56476.0,STARLINK-5545,PAYLOAD,2023-12-28 22:38:40,14.98331679,0.0002692,70.0007,346.0151,265.288,94.7971,-5.9598e-06,-1.64e-06,0.0,0 STARLINK-5545,1 56476U 23064AE  23362.94352885 -.00000164  00000-0 -59598-5 0  9997,2 56476  70.0007 346.0151 0002692 265.2880  94.7971 14.98331679 35640,6950.188,96.107,573.924,570.182,0.0
56476.0,STARLINK-5545,PAYLOAD,2023-12-29 06:39:21,14.98329808,0.0002736,70.0006,345.1736,263.0573,97.0275,-2.6245e-05,-4.06e-06,0.0,0 STARLINK-5545,1 56476U 23064AE  23363.27733014 -.00000406  00000-0 -26245-4 0  9992,2 56476  70.0006 345.1736 0002736 263.0573  97.0275 14.98329808 35691,6950.193,96.107,573.96,570.157,0.0
56476.0,STARLINK-5545,PAYLOAD,2023-12-30 03:29:06,14.98328526,0.0002808,70.0005,342.9852,263.3388,96.7452,2.4526e-05,2e-06,0.0,0 STARLINK-5545,1 56476U 23064AE  23364.14520895  .00000200  00000-0  24526-4 0  9990,2 56476  70.0005 342.9852 0002808 263.3388  96.7452 14.98328526 36185,6950.197,96.107,574.014,570.111,0.0
56476.0,STARLINK-5545,PAYLOAD,2023-12-30 08:17:30,14.98329915,0.0002897,70.0003,342.4799,268.1286,91.9541,3.0701e-05,2.73e-06,0.0,0 STARLINK-5545,1 56476U 23064AE  23364.34548819  .00000273  00000-0  30701-4 0  9990,2 56476  70.0003 342.4799 0002897 268.1286  91.9541 14.98329915 35858,6950.193,96.107,574.072,570.045,0.0
56476.0,STARLINK-5545,PAYLOAD,2023-12-31 03:31:07,14.98326726,0.0002887,70.0004,340.4601,266.5865,93.4964,-1.7949e-05,-3.07e-06,0.0,0 STARLINK-5545,1 56476U 23064AE  23365.14661180 -.00000307  00000-0 -17949-4 0  9995,2 56476  70.0004 340.4601 0002887 266.5865  93.4964 14.98326726 36330,6950.203,96.107,574.075,570.061,0.0
56476.0,STARLINK-5545,PAYLOAD,2023-12-31 22:44:43,14.98331368,0.0002949,70.0004,338.4406,268.5307,91.5514,1.1456e-06,-7.9e-07,0.0,0 STARLINK-5545,1 56476U 23064AE  23365.94772887 -.00000079  00000-0  11456-5 0  9993,2 56476  70.0004 338.4406 0002949 268.5307  91.5514 14.98331368 36093,6950.189,96.107,574.103,570.004,0.0
56476.0,STARLINK-5545,PAYLOAD,2024-01-01 03:33:07,14.98330939,0.0002958,70.0005,337.9357,268.3943,91.6877,-3.3289e-06,-1.33e-06,0.0,0 STARLINK-5545,1 56476U 23064AE  24001.14800909 -.00000133  00000-0 -33289-5 0  9990,2 56476  70.0005 337.9357 0002958 268.3943  91.6877 14.98330939 36486,6950.19,96.107,574.111,569.999,0.0
56476.0,STARLINK-5545,PAYLOAD,2024-01-01 08:21:31,14.98333561,0.0002962,70.0004,337.4302,270.4957,89.5863,2.848e-05,2.47e-06,0.0,0 STARLINK-5545,1 56476U 23064AE  24001.34828636  .00000247  00000-0  28480-4 0  9999,2 56476  70.0004 337.4302 0002962 270.4957  89.5863 14.98333561 36153,6950.182,96.107,574.106,569.988,0.0
56476.0,STARLINK-5545,PAYLOAD,2024-01-01 22:46:44,14.9833051,0.0003001,70.0004,335.9152,270.3787,89.7028,2.9313e-05,2.57e-06,0.0,0 STARLINK-5545,1 56476U 23064AE  24001.94912744  .00000257  00000-0  29313-4 0  9996,2 56476  70.0004 335.9152 0003001 270.3787  89.7028 14.98330510 36240,6950.191,96.107,574.142,569.971,0.0
56476.0,STARLINK-5545,PAYLOAD,2024-01-02 03:35:08,14.9833,0.0002856,70.0006,335.41,268.2308,91.8523,7.3887e-05,7.89e-06,0.0,0 STARLINK-5545,1 56476U 23064AE  24002.14940643  .00000789  00000-0  73887-4 0  9993,2 56476  70.0006 335.4100 0002856 268.2308  91.8523 14.98330000 36633,6950.193,96.107,574.043,570.073,0.0
56476.0,STARLINK-5545,PAYLOAD,2024-01-02 08:23:32,14.9832847,0.0002779,70.0007,334.9052,268.095,91.989,0.00022425,2.584e-05,0.0,0 STARLINK-5545,1 56476U 23064AE  24002.34968360  .00002584  00000-0  22425-3 0  9997,2 56476  70.0007 334.9052 0002779 268.0950  91.9890 14.98328470 36309,6950.198,96.107,573.994,570.131,0.0
56476.0,STARLINK-5545,PAYLOAD,2024-01-02 22:48:45,14.9833009,0.0002448,70.0017,333.3909,258.247,101.8414,1.6931e-05,1.09e-06,0.0,0 STARLINK-5545,1 56476U 23064AE  24002.95052571  .00000109  00000-0  16931-4 0  9999,2 56476  70.0017 333.3909 0002448 258.2470 101.8414 14.98330090 36398,6950.193,96.107,573.759,570.356,0.0
56476.0,STARLINK-5545,PAYLOAD,2024-01-03 03:37:09,14.98327664,0.0002623,70.0015,332.8861,262.8031,97.283,-2.4959e-06,-1.23e-06,0.0,0 STARLINK-5545,1 56476U 23064AE  24003.15080772 -.00000123  00000-0 -24959-5 0  9994,2 56476  70.0015 332.8861 0002623 262.8031  97.2830 14.98327664 36782,6950.2,96.107,573.888,570.242,0.0
56476.0,STARLINK-5545,PAYLOAD,2024-01-03 08:25:34,14.98327391,0.0002534,70.0015,332.3813,262.5025,97.5846,-2.0437e-05,-3.37e-06,0.0,0 STARLINK-5545,1 56476U 23064AE  24003.35108872 -.00000337  00000-0 -20437-4 0  9991,2 56476  70.0015 332.3813 0002534 262.5025  97.5846 14.98327391 36456,6950.201,96.107,573.827,570.305,0.0
56476.0,STARLINK-5545,PAYLOAD,2024-01-03 22:50:46,14.98329749,0.0002861,70.0008,330.8657,266.94,93.1432,-2.1184e-05,-3.46e-06,0.0,0 STARLINK-5545,1 56476U 23064AE  24003.95192620 -.00000346  00000-0 -21184-4 0  9991,2 56476  70.0008 330.8657 0002861 266.9400  93.1432 14.98329749 36547,6950.194,96.107,574.047,570.07,0.0
56476.0,STARLINK-5545,PAYLOAD,2024-01-04 03:39:10,14.98334664,0.0002742,70.0007,330.361,263.8387,96.246,-0.00011677,-1.486e-05,0.0,0 STARLINK-5545,1 56476U 23064AE  24004.15220495 -.00001486  00000-0 -11677-3 0  9997,2 56476  70.0007 330.3610 0002742 263.8387  96.2460 14.98334664 36938,6950.178,96.107,573.949,570.138,0.0
56476.0,STARLINK-5545,PAYLOAD,2024-01-04 05:15:18,14.98331817,0.0002777,70.0009,330.193,261.6629,98.4215,-2.723e-05,-4.18e-06,0.0,0 STARLINK-5545,1 56476U 23064AE  24004.21896522 -.00000418  00000-0 -27230-4 0  9991,2 56476  70.0009 330.1930 0002777 261.6629  98.4215 14.98331817 36586,6950.187,96.107,573.982,570.122,0.0
56476.0,STARLINK-5545,PAYLOAD,2024-01-04 22:52:47,14.98325671,0.0002702,70.0011,328.3422,262.9164,97.1687,6.3092e-05,6.6e-06,0.0,0 STARLINK-5545,1 56476U 23064AE  24004.95332523  .00000660  00000-0  63092-4 0  9991,2 56476  70.0011 328.3422 0002702 262.9164  97.1687 14.98325671 36692,6950.206,96.107,573.949,570.193,0.0
56476.0,STARLINK-5545,PAYLOAD,2024-01-05 05:17:18,14.98384569,0.0003001,70.0012,327.6695,260.1013,99.9807,-0.00092578,-0.00011137,0.0,0 STARLINK-5545,1 56476U 23064AE  24005.22035237 -.00011137  00000-0 -92578-3 0  9997,2 56476  70.0012 327.6695 0003001 260.1013  99.9807 14.98384569 37093,6950.024,96.103,573.975,569.803,0.0
56476.0,STARLINK-5545,PAYLOAD,2024-01-05 06:53:27,14.98328629,0.0002692,70.0011,327.5002,263.4755,96.6098,2.5389e-05,2.1e-06,0.0,0 STARLINK-5545,1 56476U 23064AE  24005.28712500  .00000210  00000-0  25389-4 0  9993,2 56476  70.0011 327.5002 0002692 263.4755  96.6098 14.98328629 37100,6950.197,96.107,573.933,570.191,0.0
56476.0,STARLINK-5545,PAYLOAD,2024-01-06 06:55:27,14.98339495,0.0002753,70.0007,324.9751,266.7658,93.3186,0.00011288,1.254e-05,0.0,0 STARLINK-5545,1 56476U 23064AE  24006.28851436  .00001254  00000-0  11288-3 0  9997,2 56476  70.0007 324.9751 0002753 266.7658  93.3186 14.98339495 37254,6950.164,96.106,573.942,570.115,0.0
56476.0,STARLINK-5545,PAYLOAD,2024-01-06 19:44:32,14.98328904,0.0001972,70.0027,323.6306,261.1994,98.8942,5.469e-05,5.6e-06,0.0,0 STARLINK-5545,1 56476U 23064AE  24006.82259983  .00000560  00000-0  54690-4 0  9990,2 56476  70.0027 323.6306 0001972 261.1994  98.8942 14.98328904 37334,6950.196,96.107,573.432,570.691,0.0
56476.0,STARLINK-5545,PAYLOAD,2024-01-06 21:20:41,14.98317855,0.0002699,70.0014,323.4577,259.9381,100.1474,4.672e-05,4.64e-06,0.0,0 STARLINK-5545,1 56476U 23064AE  24006.88936727  .00000464  00000-0  46720-4 0  9992,2 56476  70.0014 323.4577 0002699 259.9381 100.1474 14.98317855 36980,6950.23,96.108,573.971,570.22,0.0
56476.0,STARLINK-5545,PAYLOAD,2024-01-07 03:45:14,14.98313829,0.0002464,70.0016,322.7865,255.327,104.7616,-7.734e-05,-1.015e-05,0.0,0 STARLINK-5545,1 56476U 23064AE  24007.15641519 -.00001015  00000-0 -77340-4 0  9992,2 56476  70.0016 322.7865 0002464 255.3270 104.7616 14.98313829 37381,6950.243,96.108,573.82,570.395,0.0
56476.0,STARLINK-5545,PAYLOAD,2024-01-07 06:57:29,14.98323981,0.0003046,70.0001,322.4486,265.8601,94.2209,-7.0404e-05,-9.33e-06,0.0,0 STARLINK-5545,1 56476U 23064AE  24007.28992947 -.00000933  00000-0 -70404-4 0  9992,2 56476  70.0001 322.4486 0003046 265.8601  94.2209 14.98323981 37406,6950.212,96.107,574.194,569.959,0.0
56476.0,STARLINK-5545,PAYLOAD,2024-01-07 22:58:50,14.98336309,0.0003064,70.0001,320.7657,266.5865,93.4943,-8.2592e-05,-1.079e-05,0.0,0 STARLINK-5545,1 56476U 23064AE  24007.95752359 -.00001079  00000-0 -82592-4 0  9990,2 56476  70.0001 320.7657 0003064 266.5865  93.4943 14.98336309 37142,6950.173,96.107,574.168,569.909,0.0
56476.0,STARLINK-5545,PAYLOAD,2024-01-08 03:47:14,14.98335858,0.0002694,70.0007,320.2608,267.7437,92.3414,-4.7722e-05,-6.62e-06,0.0,0 STARLINK-5545,1 56476U 23064AE  24008.15780261 -.00000662  00000-0 -47722-4 0  9999,2 56476  70.0007 320.2608 0002694 267.7437  92.3414 14.98335858 37537,6950.175,96.107,573.912,570.167,0.0
56476.0,STARLINK-5545,PAYLOAD,2024-01-08 06:59:29,14.98339937,0.0002579,70.0007,319.9244,263.4811,96.6055,3.5516e-05,3.31e-06,0.0,0 STARLINK-5545,1 56476U 23064AE  24008.29131701  .00000331  00000-0  35516-4 0  9992,2 56476  70.0007 319.9244 0002579 263.4811  96.6055 14.98339937 37191,6950.162,96.106,573.82,570.235,0.0
56476.0,STARLINK-5545,PAYLOAD,2024-01-08 23:00:51,14.98322476,0.0002363,70.0017,318.2419,252.5805,107.5096,0.00012396,1.386e-05,0.0,0 STARLINK-5545,1 56476U 23064AE  24008.95892458  .00001386  00000-0  12396-3 0  9999,2 56476  70.0017 318.2419 0002363 252.5805 107.5096 14.98322476 37299,6950.216,96.107,573.723,570.439,0.0
